{
  "norad_id": 68881,
  "name": "KUIPER-00499",
  "history": [
    {
      "epoch": "2026-05-02T10:00:03.000096Z",
      "apogee_km": 464.9516715595064,
      "perigee_km": 451.08521385951553,
      "latitude_deg": 38.89082461303734,
      "longitude_deg": -125.62631810263305,
      "height_km": 454.38371046770163,
      "semi_major_axis_km": 6836.155442709511,
      "eccentricity": 0.0010142,
      "inclination_deg": 51.8686,
      "raan_deg": 103.748,
      "arg_perigee_deg": 136.132,
      "mean_anomaly_deg": 351.1417,
      "mean_motion_rev_day": 15.3597755
    },
    {
      "epoch": "2026-05-03T20:00:01.999008Z",
      "apogee_km": 465.0058514864086,
      "perigee_km": 450.83197315779944,
      "latitude_deg": 34.445124194718744,
      "longitude_deg": -32.45787538111898,
      "height_km": 461.067343013028,
      "semi_major_axis_km": 6836.055912322104,
      "eccentricity": 0.0010367,
      "inclination_deg": 51.8683,
      "raan_deg": 96.9093,
      "arg_perigee_deg": 142.4605,
      "mean_anomaly_deg": 263.4639,
      "mean_motion_rev_day": 15.36011095
    },
    {
      "epoch": "2026-05-04T20:00:01.999008Z",
      "apogee_km": 464.99748043048567,
      "perigee_km": 450.66928650673526,
      "latitude_deg": 0.47446682563898845,
      "longitude_deg": 108.98765471678433,
      "height_km": 452.56031089819527,
      "semi_major_axis_km": 6835.970383468611,
      "eccentricity": 0.001048,
      "inclination_deg": 51.8684,
      "raan_deg": 92.0834,
      "arg_perigee_deg": 145.781,
      "mean_anomaly_deg": 33.4546,
      "mean_motion_rev_day": 15.36039922
    }
  ]
}